KUIPER-00071            
1 64818U 25151C   25333.17123332 -.00004587  00000+0 -57224-3 0  9997
2 64818  51.9017  27.5628 0007210 249.2327 110.7863 14.79961153 20386
KUIPER-00072            
1 64819U 25151D   25333.16668980 -.00011351  00000+0 -15345-2 0  9994
2 64819  51.9005   6.9455 0002474 247.8618 128.8934 14.77914761  4761
KUIPER-00073            
1 64820U 25151E   25333.16668980  .00007153  00000+0  99921-3 0  9992
2 64820  51.9011  27.5548 0012934 278.8031 249.6181 14.78463379  4948
KUIPER-00074            
1 64821U 25151F   25333.08379010  .00002732  00000+0  38731-3 0  9997
2 64821  51.9023  15.4658 0013043 298.8779  61.0874 14.79907535 20540
KUIPER-00075            
1 64822U 25151G   25333.21005904  .00041394  00000+0  10199-2 0  9995
2 64822  51.8759 349.8035 0003448 279.7732  80.2866 15.40159408 20916
KUIPER-00076            
1 64823U 25151H   25333.14857769 -.00000618  00000+0 -51776-4 0  9996
2 64823  51.9024  17.6803 0005498 301.2348  58.8075 14.79962713 20529
KUIPER-00077            
1 64824U 25151J   25333.14318294  .00002996  00000+0  42186-3 0  9995
2 64824  51.9018  22.7022 0006025 247.6032 112.4292 14.79935611 20450
KUIPER-00078            
1 64825U 25151K   25333.11208461  .00005843  00000+0  79395-3 0  9993
2 64825  51.9011  20.3349 0007735 314.0610  45.9715 14.79966971 20486
