<?xml version="1.0" encoding="UTF-8"?>
<ndm xmlns:xsi="http://www.w3.org/2001/XMLSchema-instance" xsi:noNamespaceSchemaLocation="https://sanaregistry.org/r/ndmxml_unqualified/ndmxml-2.0.0-master-2.0.xsd">
<omm id="CCSDS_OMM_VERS" version="2.0">
<header><CREATION_DATE/><ORIGINATOR/></header><body><segment><metadata><OBJECT_NAME>KUIPER-00071</OBJECT_NAME><OBJECT_ID>2025-151C</OBJECT_ID><CENTER_NAME>EARTH</CENTER_NAME><REF_FRAME>TEME</REF_FRAME><TIME_SYSTEM>UTC</TIME_SYSTEM><MEAN_ELEMENT_THEORY>SGP4</MEAN_ELEMENT_THEORY></metadata><data><meanElements><EPOCH>2025-11-29T04:06:34.558848</EPOCH><MEAN_MOTION>14.79961153</MEAN_MOTION><ECCENTRICITY>.000721</ECCENTRICITY><INCLINATION>51.9017</INCLINATION><RA_OF_ASC_NODE>27.5628</RA_OF_ASC_NODE><ARG_OF_PERICENTER>249.2327</ARG_OF_PERICENTER><MEAN_ANOMALY>110.7863</MEAN_ANOMALY></meanElements><tleParameters><EPHEMERIS_TYPE>0</EPHEMERIS_TYPE><CLASSIFICATION_TYPE>U</CLASSIFICATION_TYPE><NORAD_CAT_ID>64818</NORAD_CAT_ID><ELEMENT_SET_NO>999</ELEMENT_SET_NO><REV_AT_EPOCH>2038</REV_AT_EPOCH><BSTAR>-.57224E-3</BSTAR><MEAN_MOTION_DOT>-.4587E-4</MEAN_MOTION_DOT><MEAN_MOTION_DDOT>0</MEAN_MOTION_DDOT></tleParameters></data></segment></body></omm>
<omm id="CCSDS_OMM_VERS" version="2.0">
<header><CREATION_DATE/><ORIGINATOR/></header><body><segment><metadata><OBJECT_NAME>KUIPER-00072</OBJECT_NAME><OBJECT_ID>2025-151D</OBJECT_ID><CENTER_NAME>EARTH</CENTER_NAME><REF_FRAME>TEME</REF_FRAME><TIME_SYSTEM>UTC</TIME_SYSTEM><MEAN_ELEMENT_THEORY>SGP4</MEAN_ELEMENT_THEORY></metadata><data><meanElements><EPOCH>2025-11-29T04:00:01.998720</EPOCH><MEAN_MOTION>14.77914761</MEAN_MOTION><ECCENTRICITY>.0002474</ECCENTRICITY><INCLINATION>51.9005</INCLINATION><RA_OF_ASC_NODE>6.9455</RA_OF_ASC_NODE><ARG_OF_PERICENTER>247.8618</ARG_OF_PERICENTER><MEAN_ANOMALY>128.8934</MEAN_ANOMALY></meanElements><tleParameters><EPHEMERIS_TYPE>0</EPHEMERIS_TYPE><CLASSIFICATION_TYPE>U</CLASSIFICATION_TYPE><NORAD_CAT_ID>64819</NORAD_CAT_ID><ELEMENT_SET_NO>999</ELEMENT_SET_NO><REV_AT_EPOCH>476</REV_AT_EPOCH><BSTAR>-.15345E-2</BSTAR><MEAN_MOTION_DOT>-.11351E-3</MEAN_MOTION_DOT><MEAN_MOTION_DDOT>0</MEAN_MOTION_DDOT></tleParameters></data></segment></body></omm>
<omm id="CCSDS_OMM_VERS" version="2.0">
<header><CREATION_DATE/><ORIGINATOR/></header><body><segment><metadata><OBJECT_NAME>KUIPER-00073</OBJECT_NAME><OBJECT_ID>2025-151E</OBJECT_ID><CENTER_NAME>EARTH</CENTER_NAME><REF_FRAME>TEME</REF_FRAME><TIME_SYSTEM>UTC</TIME_SYSTEM><MEAN_ELEMENT_THEORY>SGP4</MEAN_ELEMENT_THEORY></metadata><data><meanElements><EPOCH>2025-11-29T04:00:01.998720</EPOCH><MEAN_MOTION>14.78463379</MEAN_MOTION><ECCENTRICITY>.0012934</ECCENTRICITY><INCLINATION>51.9011</INCLINATION><RA_OF_ASC_NODE>27.5548</RA_OF_ASC_NODE><ARG_OF_PERICENTER>278.8031</ARG_OF_PERICENTER><MEAN_ANOMALY>249.6181</MEAN_ANOMALY></meanElements><tleParameters><EPHEMERIS_TYPE>0</EPHEMERIS_TYPE><CLASSIFICATION_TYPE>U</CLASSIFICATION_TYPE><NORAD_CAT_ID>64820</NORAD_CAT_ID><ELEMENT_SET_NO>999</ELEMENT_SET_NO><REV_AT_EPOCH>494</REV_AT_EPOCH><BSTAR>.99921E-3</BSTAR><MEAN_MOTION_DOT>.7153E-4</MEAN_MOTION_DOT><MEAN_MOTION_DDOT>0</MEAN_MOTION_DDOT></tleParameters></data></segment></body></omm>
<omm id="CCSDS_OMM_VERS" version="2.0">
<header><CREATION_DATE/><ORIGINATOR/></header><body><segment><metadata><OBJECT_NAME>KUIPER-00074</OBJECT_NAME><OBJECT_ID>2025-151F</OBJECT_ID><CENTER_NAME>EARTH</CENTER_NAME><REF_FRAME>TEME</REF_FRAME><TIME_SYSTEM>UTC</TIME_SYSTEM><MEAN_ELEMENT_THEORY>SGP4</MEAN_ELEMENT_THEORY></metadata><data><meanElements><EPOCH>2025-11-29T02:00:39.464640</EPOCH><MEAN_MOTION>14.79907535</MEAN_MOTION><ECCENTRICITY>.0013043</ECCENTRICITY><INCLINATION>51.9023</INCLINATION><RA_OF_ASC_NODE>15.4658</RA_OF_ASC_NODE><ARG_OF_PERICENTER>298.8779</ARG_OF_PERICENTER><MEAN_ANOMALY>61.0874</MEAN_ANOMALY></meanElements><tleParameters><EPHEMERIS_TYPE>0</EPHEMERIS_TYPE><CLASSIFICATION_TYPE>U</CLASSIFICATION_TYPE><NORAD_CAT_ID>64821</NORAD_CAT_ID><ELEMENT_SET_NO>999</ELEMENT_SET_NO><REV_AT_EPOCH>2054</REV_AT_EPOCH><BSTAR>.38731E-3</BSTAR><MEAN_MOTION_DOT>.2732E-4</MEAN_MOTION_DOT><MEAN_MOTION_DDOT>0</MEAN_MOTION_DDOT></tleParameters></data></segment></body></omm>
<omm id="CCSDS_OMM_VERS" version="2.0">
<header><CREATION_DATE/><ORIGINATOR/></header><body><segment><metadata><OBJECT_NAME>KUIPER-00075</OBJECT_NAME><OBJECT_ID>2025-151G</OBJECT_ID><CENTER_NAME>EARTH</CENTER_NAME><REF_FRAME>TEME</REF_FRAME><TIME_SYSTEM>UTC</TIME_SYSTEM><MEAN_ELEMENT_THEORY>SGP4</MEAN_ELEMENT_THEORY></metadata><data><meanElements><EPOCH>2025-11-29T05:02:29.101056</EPOCH><MEAN_MOTION>15.40159408</MEAN_MOTION><ECCENTRICITY>.0003448</ECCENTRICITY><INCLINATION>51.8759</INCLINATION><RA_OF_ASC_NODE>349.8035</RA_OF_ASC_NODE><ARG_OF_PERICENTER>279.7732</ARG_OF_PERICENTER><MEAN_ANOMALY>80.2866</MEAN_ANOMALY></meanElements><tleParameters><EPHEMERIS_TYPE>0</EPHEMERIS_TYPE><CLASSIFICATION_TYPE>U</CLASSIFICATION_TYPE><NORAD_CAT_ID>64822</NORAD_CAT_ID><ELEMENT_SET_NO>999</ELEMENT_SET_NO><REV_AT_EPOCH>2091</REV_AT_EPOCH><BSTAR>.10199E-2</BSTAR><MEAN_MOTION_DOT>.41394E-3</MEAN_MOTION_DOT><MEAN_MOTION_DDOT>0</MEAN_MOTION_DDOT></tleParameters></data></segment></body></omm>
<omm id="CCSDS_OMM_VERS" version="2.0">
<header><CREATION_DATE/><ORIGINATOR/></header><body><segment><metadata><OBJECT_NAME>KUIPER-00076</OBJECT_NAME><OBJECT_ID>2025-151H</OBJECT_ID><CENTER_NAME>EARTH</CENTER_NAME><REF_FRAME>TEME</REF_FRAME><TIME_SYSTEM>UTC</TIME_SYSTEM><MEAN_ELEMENT_THEORY>SGP4</MEAN_ELEMENT_THEORY></metadata><data><meanElements><EPOCH>2025-11-29T03:33:57.112416</EPOCH><MEAN_MOTION>14.79962713</MEAN_MOTION><ECCENTRICITY>.0005498</ECCENTRICITY><INCLINATION>51.9024</INCLINATION><RA_OF_ASC_NODE>17.6803</RA_OF_ASC_NODE><ARG_OF_PERICENTER>301.2348</ARG_OF_PERICENTER><MEAN_ANOMALY>58.8075</MEAN_ANOMALY></meanElements><tleParameters><EPHEMERIS_TYPE>0</EPHEMERIS_TYPE><CLASSIFICATION_TYPE>U</CLASSIFICATION_TYPE><NORAD_CAT_ID>64823</NORAD_CAT_ID><ELEMENT_SET_NO>999</ELEMENT_SET_NO><REV_AT_EPOCH>2052</REV_AT_EPOCH><BSTAR>-.51776E-4</BSTAR><MEAN_MOTION_DOT>-.618E-5</MEAN_MOTION_DOT><MEAN_MOTION_DDOT>0</MEAN_MOTION_DDOT></tleParameters></data></segment></body></omm>
<omm id="CCSDS_OMM_VERS" version="2.0">
<header><CREATION_DATE/><ORIGINATOR/></header><body><segment><metadata><OBJECT_NAME>KUIPER-00077</OBJECT_NAME><OBJECT_ID>2025-151J</OBJECT_ID><CENTER_NAME>EARTH</CENTER_NAME><REF_FRAME>TEME</REF_FRAME><TIME_SYSTEM>UTC</TIME_SYSTEM><MEAN_ELEMENT_THEORY>SGP4</MEAN_ELEMENT_THEORY></metadata><data><meanElements><EPOCH>2025-11-29T03:26:11.006016</EPOCH><MEAN_MOTION>14.79935611</MEAN_MOTION><ECCENTRICITY>.0006025</ECCENTRICITY><INCLINATION>51.9018</INCLINATION><RA_OF_ASC_NODE>22.7022</RA_OF_ASC_NODE><ARG_OF_PERICENTER>247.6032</ARG_OF_PERICENTER><MEAN_ANOMALY>112.4292</MEAN_ANOMALY></meanElements><tleParameters><EPHEMERIS_TYPE>0</EPHEMERIS_TYPE><CLASSIFICATION_TYPE>U</CLASSIFICATION_TYPE><NORAD_CAT_ID>64824</NORAD_CAT_ID><ELEMENT_SET_NO>999</ELEMENT_SET_NO><REV_AT_EPOCH>2045</REV_AT_EPOCH><BSTAR>.42186E-3</BSTAR><MEAN_MOTION_DOT>.2996E-4</MEAN_MOTION_DOT><MEAN_MOTION_DDOT>0</MEAN_MOTION_DDOT></tleParameters></data></segment></body></omm>
<omm id="CCSDS_OMM_VERS" version="2.0">
<header><CREATION_DATE/><ORIGINATOR/></header><body><segment><metadata><OBJECT_NAME>KUIPER-00078</OBJECT_NAME><OBJECT_ID>2025-151K</OBJECT_ID><CENTER_NAME>EARTH</CENTER_NAME><REF_FRAME>TEME</REF_FRAME><TIME_SYSTEM>UTC</TIME_SYSTEM><MEAN_ELEMENT_THEORY>SGP4</MEAN_ELEMENT_THEORY></metadata><data><meanElements><EPOCH>2025-11-29T02:41:24.110304</EPOCH><MEAN_MOTION>14.79966971</MEAN_MOTION><ECCENTRICITY>.0007735</ECCENTRICITY><INCLINATION>51.9011</INCLINATION><RA_OF_ASC_NODE>20.3349</RA_OF_ASC_NODE><ARG_OF_PERICENTER>314.0610</ARG_OF_PERICENTER><MEAN_ANOMALY>45.9715</MEAN_ANOMALY></meanElements><tleParameters><EPHEMERIS_TYPE>0</EPHEMERIS_TYPE><CLASSIFICATION_TYPE>U</CLASSIFICATION_TYPE><NORAD_CAT_ID>64825</NORAD_CAT_ID><ELEMENT_SET_NO>999</ELEMENT_SET_NO><REV_AT_EPOCH>2048</REV_AT_EPOCH><BSTAR>.79395E-3</BSTAR><MEAN_MOTION_DOT>.5843E-4</MEAN_MOTION_DOT><MEAN_MOTION_DDOT>0</MEAN_MOTION_DDOT></tleParameters></data></segment></body></omm>

</ndm>
